     2.100          NAVIGATION                              RINEX VERSION / TYPE
fic2rin                                 12/10/2009 01:08:34 PGM / RUN BY / DATE
                                                            END OF HEADER
 9 09 12  9 14  0  0.0  .930600799620D-04  .216004991671D-11  .000000000000D+00
     .250000000000D+02  .121875000000D+01  .421446126351D-08 -.626260094384D+00
     .128522515297D-06  .206045650411D-01  .887177884579D-05  .515362007141D+04
     .309600000000D+06 -.212341547012D-06 -.795447003275D+00  .115483999252D-06
     .978681420638D+00  .226218750000D+03  .152230228945D+01 -.830106005819D-08
     .400730977768D-09  .100000000000D+01  .156100000000D+04  .000000000000D+00
     .240000000000D+01  .000000000000D+00 -.558793544769D-08  .250000000000D+02
     .302406000000D+06  .400000000000D+01
10 09 12  9 14  0  0.0 -.300211831927D-04 -.795807864051D-12  .000000000000D+00
     .780000000000D+02  .260312500000D+02  .484377319117D-08 -.313535642400D+01
     .125542283058D-05  .886509194970D-02  .487267971039D-05  .515341330528D+04
     .309600000000D+06 -.353902578354D-07 -.283597773360D+01 -.726431608200D-07
     .955907401014D+00  .284250000000D+03  .626210672622D+00 -.831213194795D-08
    -.134648465792D-09  .100000000000D+01  .156100000000D+04  .000000000000D+00
     .240000000000D+01  .000000000000D+00 -.279396772385D-08  .780000000000D+02
     .302406000000D+06  .400000000000D+01
11 09 12  9 14  0  0.0 -.333762727678D-04 -.204636307899D-11  .000000000000D+00
     .480000000000D+02  .610312500000D+02  .631240579418D-08  .734307443538D-01
     .328570604324D-05  .103441148531D-01  .924058258533D-05  .515371408844D+04
     .309600000000D+06  .298023223877D-07  .215235251346D+01  .197440385818D-06
     .888623686286D+00  .160375000000D+03  .769616132938D+00 -.904537677625D-08
     .242867259253D-10  .100000000000D+01  .156100000000D+04  .000000000000D+00
     .240000000000D+01  .000000000000D+00 -.116415321827D-07  .480000000000D+02
     .302406000000D+06  .400000000000D+01
12 09 12  9 14  0  0.0 -.178903341293D-03  .511590769747D-11  .000000000000D+00
     .410000000000D+02 -.290937500000D+02  .474626912973D-08  .296264848780D+00
    -.151433050632D-05  .321635860018D-02  .579468905926D-05  .515379166412D+04
     .309600000000D+06  .372529029846D-07  .289895929592D+00 -.316649675369D-07
     .969191130198D+00  .274812500000D+03 -.558369030197D+00 -.827177312398D-08
     .137505727665D-09  .100000000000D+01  .156100000000D+04  .000000000000D+00
     .240000000000D+01  .000000000000D+00 -.121071934700D-07  .410000000000D+02
     .302406000000D+06  .400000000000D+01
14 09 12  9 14  0  0.0 -.143069773912D-04  .466116034659D-11  .000000000000D+00
     .102000000000D+03 -.260312500000D+02  .366908140340D-08  .248176218514D+01
    -.134669244289D-05  .507797976024D-02  .810809433460D-05  .515368687630D+04
     .309600000000D+06  .372529029846D-08 -.176897580261D+01 -.670552253723D-07
     .987188065443D+00  .235718750000D+03 -.210473746898D+01 -.770924969262D-08
    -.123933733766D-09  .100000000000D+01  .156100000000D+04  .000000000000D+00
     .240000000000D+01  .000000000000D+00 -.884756445885D-08  .102000000000D+03
     .302406000000D+06  .400000000000D+01
15 09 12  9 14  0  0.0 -.318460166454D-03  .113686837722D-11  .000000000000D+00
     .870000000000D+02 -.405625000000D+02  .452054544172D-08  .266785372979D+01
    -.205263495445D-05  .212663260754D-02  .801682472229D-05  .515370303535D+04
     .309600000000D+06  .167638063431D-07 -.182767078235D+01 -.242143869400D-07
     .955007153413D+00  .221781250000D+03 -.435781229157D+00 -.818355516363D-08
    -.215008955986D-09  .100000000000D+01  .156100000000D+04  .000000000000D+00
     .240000000000D+01  .000000000000D+00 -.977888703346D-08  .870000000000D+02
     .302406000000D+06  .400000000000D+01
16 09 12  9 14  0  0.0 -.175018794835D-04 -.420641299570D-11  .000000000000D+00
     .170000000000D+02 -.355625000000D+02  .463233581252D-08 -.210931543704D+01
    -.186450779438D-05  .540975155309D-02  .607408583164D-05  .515366765594D+04
     .309600000000D+06 -.122934579849D-06  .307107206145D+00 -.100582838058D-06
     .970509746038D+00  .270875000000D+03 -.269737570921D+00 -.815355391396D-08
     .950039572962D-10  .100000000000D+01  .156100000000D+04  .000000000000D+00
     .240000000000D+01  .000000000000D+00 -.977888703346D-08  .170000000000D+02
     .302406000000D+06  .400000000000D+01
18 09 12  9 14  0  0.0  .334633514285D-04  .272848410532D-11  .000000000000D+00
     .480000000000D+02  .231562500000D+02  .511092717635D-08 -.191479854195D+01
     .119209289551D-05  .108997110510D-01  .429153442383D-05  .515365111542D+04
     .309600000000D+06  .135973095894D-06 -.283349828934D+01 -.139698386192D-06
     .939912014194D+00  .286968750000D+03 -.235710591156D+01 -.838570644119D-08
    -.417874549009D-10  .100000000000D+01  .156100000000D+04  .000000000000D+00
     .240000000000D+01  .000000000000D+00 -.107102096081D-07  .480000000000D+02
     .302406000000D+06  .400000000000D+01
19 09 12  9 14  0  0.0 -.300304964185D-05 -.204636307899D-11  .000000000000D+00
     .100000000000D+02 -.180625000000D+02  .471555356459D-08  .232185892951D+01
    -.825151801109D-06  .595507607795D-02  .102780759335D-04  .515367939949D+04
     .309600000000D+06 -.149011611938D-07  .140536791631D+01  .180676579475D-06
     .957234301359D+00  .178937500000D+03 -.190832132147D+00 -.800497629654D-08
    -.188936441390D-09  .100000000000D+01  .156100000000D+04  .000000000000D+00
     .240000000000D+01  .000000000000D+00 -.144354999065D-07  .100000000000D+02
     .302406000000D+06  .400000000000D+01
20 09 12  9 14  0  0.0  .658305361867D-04 -.795807864051D-12  .000000000000D+00
     .520000000000D+02  .198437500000D+02  .525057585042D-08 -.174187131141D+01
     .102072954178D-05  .407193182036D-02  .468082726002D-05  .515372024155D+04
     .309600000000D+06  .633299350739D-07 -.288737751246D+01  .335276126862D-07
     .939688086786D+00  .278718750000D+03  .128409198560D+01 -.855714215360D-08
    -.189650756858D-09  .100000000000D+01  .156100000000D+04  .000000000000D+00
     .240000000000D+01  .000000000000D+00 -.745058059692D-08  .520000000000D+02
     .302406000000D+06  .400000000000D+01
22 09 12  9 14  0  0.0  .184383243322D-03 -.682121026330D-12  .000000000000D+00
     .103000000000D+03  .239375000000D+02  .515128600031D-08 -.294389107361D+01
     .124238431454D-05  .521061045583D-02  .457651913166D-05  .515366386604D+04
     .309600000000D+06  .745058059692D-07 -.282822698735D+01 -.447034835815D-07
     .937585567757D+00  .278750000000D+03 -.187566915671D+01 -.845678083029D-08
    -.133934150324D-09  .100000000000D+01  .156100000000D+04  .000000000000D+00
     .485000000000D+01  .000000000000D+00 -.176951289177D-07  .103000000000D+03
     .302406000000D+06  .400000000000D+01
23 09 12  9 14  0  0.0  .384710729122D-03 -.682121026330D-12  .000000000000D+00
     .970000000000D+02 -.267187500000D+02  .420160358508D-08  .179032631078D+01
    -.126846134663D-05  .633355253376D-02  .868551433086D-05  .515374930191D+04
     .309600000000D+06  .558793544769D-08 -.180494045131D+01  .949949026108D-07
     .969101988748D+00  .216718750000D+03  .300986065781D+01 -.797426073140D-08
    -.284654714154D-09  .100000000000D+01  .156100000000D+04  .000000000000D+00
     .240000000000D+01  .000000000000D+00 -.200234353542D-07  .970000000000D+02
     .302406000000D+06  .400000000000D+01
24 09 12  9 14  0  0.0  .243488699198D-03  .329691829393D-11  .000000000000D+00
     .710000000000D+02  .595937500000D+02  .484627329531D-08 -.207627700047D+01
     .302121043205D-05  .613867409993D-02  .909715890884D-05  .515367418671D+04
     .309600000000D+06 -.199303030968D-06  .242778043633D+01 -.298023223877D-07
     .949786055842D+00  .198437500000D+03 -.567113642034D+00 -.820641325862D-08
     .242867259253D-10  .100000000000D+01  .156100000000D+04  .000000000000D+00
     .240000000000D+01  .630000000000D+02 -.139698386192D-08  .710000000000D+02
     .302406000000D+06  .400000000000D+01
25 09 12  9 14  0  0.0  .479524023831D-04  .120508047985D-10  .000000000000D+00
     .720000000000D+02  .215000000000D+02  .419553190360D-08 -.151729164728D+01
     .126101076603D-05  .114606481511D-01  .883638858795D-05  .515370026588D+04
     .309600000000D+06 -.182539224625D-06 -.856931878972D+00  .204890966415D-06
     .971811541246D+00  .218156250000D+03 -.122083741644D+01 -.807605068564D-08
     .388944772540D-09  .100000000000D+01  .156100000000D+04  .000000000000D+00
     .240000000000D+01  .000000000000D+00 -.745058059692D-08  .720000000000D+02
     .302406000000D+06  .400000000000D+01
26 09 12  9 14  0  0.0 -.116741284728D-05 -.238742359215D-11  .000000000000D+00
     .440000000000D+02 -.226562500000D+02  .373408411102D-08 -.292670178179D+00
    -.987201929092D-06  .196333489148D-01  .845268368721D-05  .515361930275D+04
     .309600000000D+06 -.800937414169D-07 -.175103761377D+01  .271946191788D-06
     .991592181783D+00  .236437500000D+03  .104745244907D+01 -.809712299196D-08
    -.750031241812D-10  .100000000000D+01  .156100000000D+04  .000000000000D+00
     .240000000000D+01  .000000000000D+00 -.605359673500D-08  .440000000000D+02
     .302406000000D+06  .400000000000D+01
27 09 12  9 14  0  0.0  .106896739453D-03  .341060513165D-11  .000000000000D+00
     .410000000000D+02 -.393750000000D+01  .403945397376D-08  .256476084968D+01
    -.257045030594D-06  .216666528722D-01  .821426510811D-05  .515370648384D+04
     .309600000000D+06  .311061739922D-06 -.819907902032D+00 -.165775418282D-06
     .976702604498D+00  .224937500000D+03 -.150696675768D+01 -.756424365254D-08
     .198579700213D-09  .100000000000D+01  .156100000000D+04  .000000000000D+00
     .240000000000D+01  .000000000000D+00 -.419095158577D-08  .410000000000D+02
     .302406000000D+06  .400000000000D+01
